NORAD_CAT_ID,OBJECT_NAME,OBJECT_TYPE,EPOCH,MEAN_MOTION,ECCENTRICITY,INCLINATION,RA_OF_ASC_NODE,ARG_OF_PERICENTER,MEAN_ANOMALY,BSTAR,MEAN_MOTION_DOT,MEAN_MOTION_DDOT,TLE_LINE0,TLE_LINE1,TLE_LINE2,SEMIMAJOR_AXIS,PERIOD,APOGEE,PERIGEE,DECAYED
55630.0,STARLINK-5303,PAYLOAD,2024-01-13 04:04:39,14.98328657,0.0003026,69.9991,27.6125,263.1903,96.8912,-0.00019203,-2.383e-05,0.0,0 STARLINK-5303,1 55630U 23021C   24013.16990301 -.00002383  00000-0 -19203-3 0  9992,2 55630  69.9991  27.6125 0003026 263.1903  96.8912 14.98328657 50184,6950.197,96.107,574.165,569.959,0.0
55630.0,STARLINK-5303,PAYLOAD,2024-01-13 10:29:11,14.98336986,0.0003196,69.9991,26.9394,267.6777,92.4017,-9.401e-05,-1.215e-05,0.0,0 STARLINK-5303,1 55630U 23021C   24013.43693537 -.00001215  00000-0 -94010-4 0  9996,2 55630  69.9991  26.9394 0003196 267.6777  92.4017 14.98336986 50227,6950.171,96.107,574.258,569.815,0.0
55630.0,STARLINK-5303,PAYLOAD,2024-01-14 04:06:40,14.98320654,0.0003204,69.9993,25.0872,267.7431,92.3361,0.0002242,2.582e-05,0.0,0 STARLINK-5303,1 55630U 23021C   24014.17130025  .00002582  00000-0  22420-3 0  9997,2 55630  69.9993  25.0872 0003204 267.7431  92.3361 14.98320654 50336,6950.222,96.108,574.314,569.86,0.0
55630.0,STARLINK-5303,PAYLOAD,2024-01-14 10:31:12,14.98327926,0.0003136,69.9995,24.4143,267.723,92.357,0.00030918,3.598e-05,0.0,0 STARLINK-5303,1 55630U 23021C   24014.43833641  .00003598  00000-0  30918-3 0  9999,2 55630  69.9995  24.4143 0003136 267.7230  92.3570 14.98327926 50671,6950.199,96.107,574.244,569.885,0.0
55630.0,STARLINK-5303,PAYLOAD,2024-01-15 10:33:13,14.98336547,0.0002767,70.0004,21.8909,256.2942,103.7909,0.00018795,2.151e-05,0.0,0 STARLINK-5303,1 55630U 23021C   24015.43973608  .00002151  00000-0  18795-3 0  9991,2 55630  70.0004  21.8909 0002767 256.2942 103.7909 14.98336547 50524,6950.173,96.107,573.961,570.115,0.0
55630.0,STARLINK-5303,PAYLOAD,2024-01-16 10:35:14,14.98329482,0.0002483,70.0011,19.3656,255.3295,104.7588,1.4976e-05,8.6e-07,0.0,0 STARLINK-5303,1 55630U 23021C   24016.44114350  .00000086  00000-0  14976-4 0  9997,2 55630  70.0011  19.3656 0002483 255.3295 104.7588 14.98329482 50679,6950.194,96.107,573.785,570.334,0.0
55630.0,STARLINK-5303,PAYLOAD,2024-01-17 04:12:44,14.98323767,0.0002424,70.0012,17.5142,254.483,105.6062,-6.4856e-05,-8.66e-06,0.0,0 STARLINK-5303,1 55630U 23021C   24017.17550952 -.00000866  00000-0 -64856-4 0  9990,2 55630  70.0012  17.5142 0002424 254.4830 105.6062 14.98323767 50789,6950.212,96.107,573.762,570.392,0.0
55630.0,STARLINK-5303,PAYLOAD,2024-01-17 09:01:08,14.98318082,0.0002507,70.0011,17.0091,257.7743,102.3136,-0.00013578,-1.712e-05,0.0,0 STARLINK-5303,1 55630U 23021C   24017.37579621 -.00001712  00000-0 -13578-3 0  9991,2 55630  70.0011  17.0091 0002507 257.7743 102.3136 14.98318082 50811,6950.23,96.108,573.837,570.352,0.0
55630.0,STARLINK-5303,PAYLOAD,2024-01-18 04:14:44,14.98328831,0.0003152,69.9995,14.9879,271.8241,88.2557,7.3793e-05,7.88e-06,0.0,0 STARLINK-5303,1 55630U 23021C   24018.17690738  .00000788  00000-0  73793-4 0  9999,2 55630  69.9995  14.9879 0003152 271.8241  88.2557 14.98328831 50931,6950.197,96.107,574.252,569.871,0.0
55630.0,STARLINK-5303,PAYLOAD,2024-01-18 09:03:08,14.98335505,0.0002842,70.0001,14.4823,268.4119,91.6714,0.00016053,1.823e-05,0.0,0 STARLINK-5303,1 55630U 23021C   24018.37718115  .00001823  00000-0  16053-3 0  9997,2 55630  70.0001  14.4823 0002842 268.4119  91.6714 14.98335505 50969,6950.176,96.107,574.016,570.066,0.0
55630.0,STARLINK-5303,PAYLOAD,2024-01-19 09:05:09,14.98336649,0.0002773,70.0003,11.9586,268.8334,91.2508,0.0003039,3.536e-05,0.0,0 STARLINK-5303,1 55630U 23021C   24019.37857830  .00003536  00000-0  30390-3 0  9999,2 55630  70.0003  11.9586 0002773 268.8334  91.2508 14.98336649 51110,6950.172,96.107,573.965,570.11,0.0
55630.0,STARLINK-5303,PAYLOAD,2024-01-19 23:30:22,14.98335108,0.0002546,70.0008,10.443,265.263,94.8238,1.6699e-05,1.06e-06,0.0,0 STARLINK-5303,1 55630U 23021C   24019.97942353  .00000106  00000-0  16699-4 0  9997,2 55630  70.0008  10.4430 0002546 265.2630  94.8238 14.98335108 51506,6950.177,96.107,573.812,570.273,0.0
55630.0,STARLINK-5303,PAYLOAD,2024-01-20 02:42:38,14.98334388,0.0002611,70.0006,10.1065,268.5687,91.5173,7.2757e-06,-6e-08,0.0,0 STARLINK-5303,1 55630U 23021C   24020.11294348 -.00000006  00000-0  72757-5 0  9997,2 55630  70.0006  10.1065 0002611 268.5687  91.5173 14.98334388 51226,6950.179,96.107,573.859,570.23,0.0
55630.0,STARLINK-5303,PAYLOAD,2024-01-20 09:07:10,14.98325541,0.0002475,70.0009,9.4329,266.748,93.3396,0.00025999,3.01e-05,0.0,0 STARLINK-5303,1 55630U 23021C   24020.37998328  .00003010  00000-0  25999-3 0  9995,2 55630  70.0009   9.4329 0002475 266.7480  93.3396 14.98325541 51567,6950.207,96.107,573.792,570.352,0.0
55630.0,STARLINK-5303,PAYLOAD,2024-01-21 04:20:47,14.98331747,0.000245,70.001,7.413,260.7956,99.2926,-2.2747e-05,-3.64e-06,0.0,0 STARLINK-5303,1 55630U 23021C   24021.18110171 -.00000364  00000-0 -22747-4 0  9997,2 55630  70.0010   7.4130 0002450 260.7956  99.2926 14.98331747 51381,6950.187,96.107,573.755,570.35,0.0
55630.0,STARLINK-5303,PAYLOAD,2024-01-21 05:56:55,14.98330783,0.0002521,70.001,7.2447,262.6907,97.3966,-3.0129e-05,-4.52e-06,0.0,0 STARLINK-5303,1 55630U 23021C   24021.24786283 -.00000452  00000-0 -30129-4 0  9998,2 55630  70.0010   7.2447 0002521 262.6907  97.3966 14.98330783 51692,6950.19,96.107,573.808,570.303,0.0
55630.0,STARLINK-5303,PAYLOAD,2024-01-21 21:58:15,14.98333578,0.0002528,70.0011,5.5616,261.4524,98.6349,6.7441e-05,7.12e-06,0.0,0 STARLINK-5303,1 55630U 23021C   24021.91545671  .00000712  00000-0  67441-4 0  9990,2 55630  70.0011   5.5616 0002528 261.4524  98.6349 14.98333578 51796,6950.182,96.107,573.804,570.29,0.0
55630.0,STARLINK-5303,PAYLOAD,2024-01-22 04:22:47,14.98334066,0.0002509,70.0012,4.8884,261.787,98.3004,7.0994e-05,7.54e-06,0.0,0 STARLINK-5303,1 55630U 23021C   24022.18249588  .00000754  00000-0  70994-4 0  9991,2 55630  70.0012   4.8884 0002509 261.7870  98.3004 14.98334066 51532,6950.18,96.107,573.789,570.302,0.0
55630.0,STARLINK-5303,PAYLOAD,2024-01-22 05:58:55,14.98334453,0.0002506,70.0012,4.7201,261.6442,98.4433,7.6553e-05,8.21e-06,0.0,0 STARLINK-5303,1 55630U 23021C   24022.24925583  .00000821  00000-0  76553-4 0  9996,2 55630  70.0012   4.7201 0002506 261.6442  98.4433 14.98334453 51846,6950.179,96.107,573.786,570.302,0.0
55630.0,STARLINK-5303,PAYLOAD,2024-01-22 09:11:11,14.98335856,0.0002495,70.0012,4.3835,262.1099,97.9777,9.1077e-05,9.94e-06,0.0,0 STARLINK-5303,1 55630U 23021C   24022.38277431  .00000994  00000-0  91077-4 0  9992,2 55630  70.0012   4.3835 0002495 262.1099  97.9777 14.98335856 51861,6950.175,96.107,573.774,570.306,0.0
55630.0,STARLINK-5303,PAYLOAD,2024-01-23 06:00:56,14.98330013,0.0002403,70.0014,2.1957,259.3836,100.7052,9.1414e-05,9.98e-06,0.0,0 STARLINK-5303,1 55630U 23021C   24023.25065700  .00000998  00000-0  91414-4 0  9992,2 55630  70.0014   2.1957 0002403 259.3836 100.7052 14.98330013 51993,6950.193,96.107,573.728,570.388,0.0
55630.0,STARLINK-5303,PAYLOAD,2024-01-23 07:37:04,14.98332129,0.0002466,70.0014,2.0274,260.9942,99.0938,0.00010092,1.111e-05,0.0,0 STARLINK-5303,1 55630U 23021C   24023.31741529  .00001111  00000-0  10092-3 0  9999,2 55630  70.0014   2.0274 0002466 260.9942  99.0938 14.98332129 51701,6950.186,96.107,573.765,570.337,0.0
55630.0,STARLINK-5303,PAYLOAD,2024-01-24 01:14:32,14.98367281,0.0002443,70.0019,0.1775,252.6189,107.4703,-0.00060868,-7.355e-05,0.0,0 STARLINK-5303,1 55630U 23021C   24024.05177049 -.00007355  00000-0 -60868-3 0  9995,2 55630  70.0019   0.1775 0002443 252.6189 107.4703 14.98367281 51810,6950.078,96.105,573.641,570.245,0.0
55630.0,STARLINK-5303,PAYLOAD,2024-01-24 07:39:05,14.98329568,0.0002395,70.0019,359.5034,251.2317,108.8583,-5.9871e-06,-1.64e-06,0.0,0 STARLINK-5303,1 55630U 23021C   24024.31881851 -.00000164  00000-0 -59871-5 0  9992,2 55630  70.0019 359.5034 0002395 251.2317 108.8583 14.98329568 51854,6950.194,96.107,573.724,570.395,0.0
55630.0,STARLINK-5303,PAYLOAD,2024-01-25 07:41:06,14.9833101,0.0002529,70.0019,356.9797,248.1342,111.9548,1.7505e-05,1.16e-06,0.0,0 STARLINK-5303,1 55630U 23021C   24025.32021613  .00000116  00000-0  17505-4 0  9998,2 55630  70.0019 356.9797 0002529 248.1342 111.9548 14.98331010 52002,6950.19,96.107,573.812,570.297,0.0
55630.0,STARLINK-5303,PAYLOAD,2024-01-25 22:06:19,14.98329798,0.0002581,70.0018,355.4644,252.658,107.4297,6.1352e-05,6.39e-06,0.0,0 STARLINK-5303,1 55630U 23021C   24025.92105541  .00000639  00000-0  61352-4 0  9996,2 55630  70.0018 355.4644 0002581 252.6580 107.4297 14.98329798 52391,6950.194,96.107,573.852,570.265,0.0
55630.0,STARLINK-5303,PAYLOAD,2024-01-26 07:43:07,14.98331071,0.0002576,70.0017,354.4546,254.2242,105.8633,7.2077e-05,7.67e-06,0.0,0 STARLINK-5303,1 55630U 23021C   24026.32161514  .00000767  00000-0  72077-4 0  9991,2 55630  70.0017 354.4546 0002576 254.2242 105.8633 14.98331071 52154,6950.19,96.107,573.845,570.264,0.0
55630.0,STARLINK-5303,PAYLOAD,2024-01-27 07:45:08,14.9833242,0.0002555,70.0018,351.9291,257.5124,102.575,6.4273e-05,6.74e-06,0.0,0 STARLINK-5303,1 55630U 23021C   24027.32301426  .00000674  00000-0  64273-4 0  9996,2 55630  70.0018 351.9291 0002555 257.5124 102.5750 14.98332420 52306,6950.185,96.107,573.826,570.275,0.0
55630.0,STARLINK-5303,PAYLOAD,2024-01-27 22:10:21,14.98330542,0.0002489,70.0019,350.414,257.4344,102.6537,3.8133e-05,3.62e-06,0.0,0 STARLINK-5303,1 55630U 23021C   24027.92385542  .00000362  00000-0  38133-4 0  9993,2 55630  70.0019 350.4140 0002489 257.4344 102.6537 14.98330542 52692,6950.191,96.107,573.786,570.326,0.0
55630.0,STARLINK-5303,PAYLOAD,2024-01-28 07:47:09,14.98330694,0.0002508,70.0019,349.4041,256.6651,103.4229,3.4786e-05,3.22e-06,0.0,0 STARLINK-5303,1 55630U 23021C   24028.32441550  .00000322  00000-0  34786-4 0  9996,2 55630  70.0019 349.4041 0002508 256.6651 103.4229 14.98330694 52453,6950.191,96.107,573.799,570.313,0.0
